NORAD_CAT_ID,OBJECT_NAME,OBJECT_TYPE,EPOCH,MEAN_MOTION,ECCENTRICITY,INCLINATION,RA_OF_ASC_NODE,ARG_OF_PERICENTER,MEAN_ANOMALY,BSTAR,MEAN_MOTION_DOT,MEAN_MOTION_DDOT,TLE_LINE0,TLE_LINE1,TLE_LINE2,SEMIMAJOR_AXIS,PERIOD,APOGEE,PERIGEE,DECAYED
55750.0,STARLINK-5573,PAYLOAD,2023-11-27 21:14:11,14.98318791,0.0002485,70.0013,184.2723,215.1762,144.9234,-0.00010961,-1.4e-05,0.0,0 STARLINK-5573,1 55750U 23028K   23331.88485079 -.00001400  00000-0 -10961-3 0  9995,2 55750  70.0013 184.2723 0002485 215.1762 144.9234 14.98318791 41299,6950.228,96.108,573.82,570.365,0.0
55750.0,STARLINK-5573,PAYLOAD,2023-11-28 00:26:26,14.98327327,0.0002151,70.0004,183.9345,251.7913,108.3012,-5.9324e-05,-8.01e-06,0.0,0 STARLINK-5573,1 55750U 23028K   23332.01836500 -.00000801  00000-0 -59324-4 0  9991,2 55750  70.0004 183.9345 0002151 251.7913 108.3012 14.98327327 41315,6950.201,96.107,573.561,570.571,0.0
55750.0,STARLINK-5573,PAYLOAD,2023-11-28 14:51:38,14.98331041,0.0002442,69.9992,182.4173,270.0849,90.003,0.00010399,1.148e-05,0.0,0 STARLINK-5573,1 55750U 23028K   23332.61919714  .00001148  00000-0  10399-3 0  9997,2 55750  69.9992 182.4173 0002442 270.0849  90.0030 14.98331041 41401,6950.19,96.107,573.752,570.357,0.0
55750.0,STARLINK-5573,PAYLOAD,2023-11-28 19:40:02,14.98330921,0.0002479,69.9997,181.9119,262.8053,97.2824,9.0043e-05,9.82e-06,0.0,0 STARLINK-5573,1 55750U 23028K   23332.81947704  .00000982  00000-0  90043-4 0  9999,2 55750  69.9997 181.9119 0002479 262.8053  97.2824 14.98330921 41435,6950.19,96.107,573.778,570.332,0.0
55750.0,STARLINK-5573,PAYLOAD,2023-11-29 00:28:29,14.98291035,0.0002771,69.9993,181.4084,260.5896,99.495,-0.00037615,-4.574e-05,0.0,0 STARLINK-5573,1 55750U 23028K   23333.01979042 -.00004574  00000-0 -37615-3 0  9990,2 55750  69.9993 181.4084 0002771 260.5896  99.4950 14.98291035 41461,6950.313,96.109,574.104,570.252,0.0
55750.0,STARLINK-5573,PAYLOAD,2023-11-29 14:53:40,14.98317268,0.0002723,69.9998,179.8921,270.5593,89.5254,-1.7777e-05,-3.05e-06,0.0,0 STARLINK-5573,1 55750U 23028K   23333.62061012 -.00000305  00000-0 -17777-4 0  9992,2 55750  69.9998 179.8921 0002723 270.5593  89.5254 14.98317268 41553,6950.232,96.108,573.99,570.205,0.0
55750.0,STARLINK-5573,PAYLOAD,2023-11-29 19:42:04,14.98323286,0.0002541,69.9989,179.3868,258.7891,101.2982,-0.00010168,-1.306e-05,0.0,0 STARLINK-5573,1 55750U 23028K   23333.82088962 -.00001306  00000-0 -10168-3 0  9995,2 55750  69.9989 179.3868 0002541 258.7891 101.2982 14.98323286 41585,6950.214,96.107,573.845,570.313,0.0
55750.0,STARLINK-5573,PAYLOAD,2023-11-30 18:07:57,14.98328238,0.0002465,70.0001,177.0321,262.1112,97.9767,-1.956e-05,-3.26e-06,0.0,0 STARLINK-5573,1 55750U 23028K   23334.75552782 -.00000326  00000-0 -19560-4 0  9991,2 55750  70.0001 177.0321 0002465 262.1112  97.9767 14.98328238 41722,6950.198,96.107,573.777,570.35,0.0
55750.0,STARLINK-5573,PAYLOAD,2023-12-01 19:46:06,14.98330782,0.0002561,69.9981,174.3358,266.6418,93.4448,0.00014442,1.631e-05,0.0,0 STARLINK-5573,1 55750U 23028K   23335.82368252  .00001631  00000-0  14442-3 0  9998,2 55750  69.9981 174.3358 0002561 266.6418  93.4448 14.98330782 41882,6950.19,96.107,573.835,570.276,0.0
55750.0,STARLINK-5573,PAYLOAD,2023-12-01 21:22:14,14.98331401,0.0002442,69.9989,174.1686,259.426,100.6624,0.00017051,1.942e-05,0.0,0 STARLINK-5573,1 55750U 23028K   23335.89044121  .00001942  00000-0  17051-3 0  9995,2 55750  69.9989 174.1686 0002442 259.4260 100.6624 14.98331401 41892,6950.189,96.107,573.751,570.356,0.0
55750.0,STARLINK-5573,PAYLOAD,2023-12-02 13:23:34,14.98338091,0.0002649,69.9983,172.484,267.5975,92.4881,7.4901e-05,8.01e-06,0.0,0 STARLINK-5573,1 55750U 23028K   23336.55803786  .00000801  00000-0  74901-4 0  9990,2 55750  69.9983 172.4840 0002649 267.5975  92.4881 14.98338091 41997,6950.168,96.106,573.874,570.192,0.0
55750.0,STARLINK-5573,PAYLOAD,2023-12-02 19:48:06,14.98338764,0.0002459,69.9983,171.8109,264.8009,95.287,5.6248e-05,5.78e-06,0.0,0 STARLINK-5573,1 55750U 23028K   23336.82507654  .00000578  00000-0  56248-4 0  9990,2 55750  69.9983 171.8109 0002459 264.8009  95.2870 14.98338764 42037,6950.166,96.106,573.74,570.322,0.0
55750.0,STARLINK-5573,PAYLOAD,2023-12-02 21:24:14,14.98337654,0.0002553,69.9983,171.6427,265.9643,94.1224,6.3882e-05,6.69e-06,0.0,0 STARLINK-5573,1 55750U 23028K   23336.89183648  .00000669  00000-0  63882-4 0  9993,2 55750  69.9983 171.6427 0002553 265.9643  94.1224 14.98337654 42048,6950.169,96.107,573.809,570.26,0.0
55750.0,STARLINK-5573,PAYLOAD,2023-12-02 23:00:23,14.9830321,0.000237,69.9983,171.4743,268.9256,91.1632,0.00067997,8.024e-05,0.0,0 STARLINK-5573,1 55750U 23028K   23336.95860530  .00008024  00000-0  67997-3 0  9995,2 55750  69.9983 171.4743 0002370 268.9256  91.1632 14.98303210 42059,6950.276,96.109,573.788,570.494,0.0
55750.0,STARLINK-5573,PAYLOAD,2023-12-03 13:25:35,14.98330643,0.000243,69.9987,169.9599,263.7984,96.2898,-3.6764e-05,-5.32e-06,0.0,0 STARLINK-5573,1 55750U 23028K   23337.55944184 -.00000532  00000-0 -36764-4 0  9997,2 55750  69.9987 169.9599 0002430 263.7984  96.2898 14.98330643 42142,6950.191,96.107,573.745,570.367,0.0
55750.0,STARLINK-5573,PAYLOAD,2023-12-03 19:50:08,14.98329527,0.0002298,69.999,169.2878,254.5165,105.5741,-0.00011224,-1.432e-05,0.0,0 STARLINK-5573,1 55750U 23028K   23337.82648430 -.00001432  00000-0 -11224-3 0  9995,2 55750  69.9990 169.2878 0002298 254.5165 105.5741 14.98329527 42184,6950.194,96.107,573.657,570.462,0.0
55750.0,STARLINK-5573,PAYLOAD,2023-12-04 13:27:36,14.98329847,0.0002801,69.9978,167.4351,270.9311,89.1527,-6.5477e-05,-8.74e-06,0.0,0 STARLINK-5573,1 55750U 23028K   23338.56084264 -.00000874  00000-0 -65477-4 0  9995,2 55750  69.9978 167.4351 0002801 270.9311  89.1527 14.98329847 42297,6950.193,96.107,574.005,570.112,0.0
55750.0,STARLINK-5573,PAYLOAD,2023-12-04 23:04:25,14.983307,0.000262,69.9983,166.4258,270.5313,89.5545,-5.795e-05,-7.84e-06,0.0,0 STARLINK-5573,1 55750U 23028K   23338.96140187 -.00000784  00000-0 -57950-4 0  9993,2 55750  69.9983 166.4258 0002620 270.5313  89.5545 14.98330700 42356,6950.191,96.107,573.877,570.235,0.0
55750.0,STARLINK-5573,PAYLOAD,2023-12-05 13:29:37,14.9832778,0.0002771,69.998,164.911,272.1633,87.9209,8.2559e-05,8.92e-06,0.0,0 STARLINK-5573,1 55750U 23028K   23339.56224020  .00000892  00000-0  82559-4 0  9990,2 55750  69.9980 164.9110 0002771 272.1633  87.9209 14.98327780 42446,6950.2,96.107,573.991,570.139,0.0
55750.0,STARLINK-5573,PAYLOAD,2023-12-06 13:31:38,14.98333568,0.0002734,69.9977,162.3863,274.0043,86.0804,7.3982e-05,7.9e-06,0.0,0 STARLINK-5573,1 55750U 23028K   23340.56363644  .00000790  00000-0  73982-4 0  9995,2 55750  69.9977 162.3863 0002734 274.0043  86.0804 14.98333568 42592,6950.182,96.107,573.947,570.147,0.0
55750.0,STARLINK-5573,PAYLOAD,2023-12-07 13:33:39,14.98334505,0.0002379,69.9987,159.8611,259.8178,100.2712,-5.8135e-06,-1.62e-06,0.0,0 STARLINK-5573,1 55750U 23028K   23341.56503474 -.00000162  00000-0 -58135-5 0  9992,2 55750  69.9987 159.8611 0002379 259.8178 100.2712 14.98334505 42746,6950.179,96.107,573.697,570.391,0.0
55750.0,STARLINK-5573,PAYLOAD,2023-12-08 13:35:39,14.98331245,0.0002547,69.9972,157.3333,264.1328,95.9541,-2.3677e-05,-3.75e-06,0.0,0 STARLINK-5573,1 55750U 23028K   23342.56643504 -.00000375  00000-0 -23677-4 0  9990,2 55750  69.9972 157.3333 0002547 264.1328  95.9541 14.98331245 42891,6950.189,96.107,573.824,570.284,0.0
55750.0,STARLINK-5573,PAYLOAD,2023-12-09 13:37:40,14.98330793,0.0002628,69.9973,154.8086,266.4378,93.6481,2.9292e-05,2.57e-06,0.0,0 STARLINK-5573,1 55750U 23028K   23343.56783242  .00000257  00000-0  29292-4 0  9991,2 55750  69.9973 154.8086 0002628 266.4378  93.6481 14.98330793 43042,6950.19,96.107,573.882,570.229,0.0
55750.0,STARLINK-5573,PAYLOAD,2023-12-10 13:39:41,14.98331376,0.0002694,69.9983,152.2858,268.8184,91.2666,1.9024e-05,1.34e-06,0.0,0 STARLINK-5573,1 55750U 23028K   23344.56923186  .00000134  00000-0  19024-4 0  9991,2 55750  69.9983 152.2858 0002694 268.8184  91.2666 14.98331376 43199,6950.189,96.107,573.926,570.181,0.0
55750.0,STARLINK-5573,PAYLOAD,2023-12-10 20:04:13,14.98330849,0.000277,69.9987,151.6129,270.976,89.1082,1.3253e-05,6.5e-07,0.0,0 STARLINK-5573,1 55750U 23028K   23344.83627227  .00000065  00000-0  13253-4 0  9999,2 55750  69.9987 151.6129 0002770 270.9760  89.1082 14.98330849 43233,6950.19,96.107,573.98,570.13,0.0
55750.0,STARLINK-5573,PAYLOAD,2023-12-10 21:40:21,14.98331286,0.0002793,69.9987,151.4446,271.5344,88.5495,1.7089e-05,1.11e-06,0.0,0 STARLINK-5573,1 55750U 23028K   23344.90303174  .00000111  00000-0  17089-4 0  9992,2 55750  69.9987 151.4446 0002793 271.5344  88.5495 14.98331286 43241,6950.189,96.107,573.995,570.113,0.0
55750.0,STARLINK-5573,PAYLOAD,2023-12-11 13:41:42,14.98331621,0.0002746,69.9988,149.7615,268.1462,91.9383,1.0532e-05,3.3e-07,0.0,0 STARLINK-5573,1 55750U 23028K   23345.57063089  .00000033  00000-0  10532-4 0  9993,2 55750  69.9988 149.7615 0002746 268.1462  91.9383 14.98331621 43349,6950.188,96.107,573.961,570.144,0.0
55750.0,STARLINK-5573,PAYLOAD,2023-12-11 20:06:14,14.98331142,0.0002609,69.9991,149.0882,267.4492,92.6368,1.2995e-05,6.2e-07,0.0,0 STARLINK-5573,1 55750U 23028K   23345.83767086  .00000062  00000-0  12995-4 0  9997,2 55750  69.9991 149.0882 0002609 267.4492  92.6368 14.98331142 43388,6950.189,96.107,573.868,570.241,0.0
55750.0,STARLINK-5573,PAYLOAD,2023-12-12 13:43:43,14.98329913,0.0002727,69.9991,147.2366,267.5403,92.5444,-5.5718e-08,-9.4e-07,0.0,0 STARLINK-5573,1 55750U 23028K   23346.57203136 -.00000094  00000-0 -55718-7 0  9990,2 55750  69.9991 147.2366 0002727 267.5403  92.5444 14.98329913 43498,6950.193,96.107,573.953,570.163,0.0
55750.0,STARLINK-5573,PAYLOAD,2023-12-12 20:08:15,14.98328798,0.0002677,69.9995,146.5644,265.9879,94.0974,1.7219e-05,1.12e-06,0.0,0 STARLINK-5573,1 55750U 23028K   23346.83907165  .00000112  00000-0  17219-4 0  9992,2 55750  69.9995 146.5644 0002677 265.9879  94.0974 14.98328798 43536,6950.197,96.107,573.922,570.201,0.0
